{"type": "FeatureCollection", "features": [ {"type": "Feature", "properties": {"norad_id": 66614, "name": "STARLINK-36040", "group": "last-30-days", "lat": -14.439262001234068, "lon": 73.30322884093506, "alt_km": 341.26615486959054, "timestamp": "2025-12-05T04:52:14.143074+00:00", "meta": {"OBJECT_NAME": "STARLINK-36040", "OBJECT_ID": "2025-270AC", "EPOCH": "2025-12-04T15:51:01.032768", "MEAN_MOTION": 15.75376134, "ECCENTRICITY": 0.000319, "INCLINATION": 42.9982, "RA_OF_ASC_NODE": 240.5572, "ARG_OF_PERICENTER": 243.2754, "MEAN_ANOMALY": 116.7789, "EPHEMERIS_TYPE": 0, "CLASSIFICATION_TYPE": "U", "NORAD_CAT_ID": 66614, "ELEMENT_SET_NO": 999, "REV_AT_EPOCH": 292, "BSTAR": 0.0047436, "MEAN_MOTION_DOT": 0.00814786, "MEAN_MOTION_DDOT": 0}, "tle": {"line1": "1 66614U 25270AC  25338.66042862  .00814786  00000+0  47436-2 0  9993", "line2": "2 66614  42.9982 240.5572 0003190 243.2754 116.7789 15.75376134  2928"}}, "geometry": {"type": "Point", "coordinates": [73.30322884093506, -14.439262001234068]}}, {"type": "Feature", "properties": {"norad_id": 66615, "name": "STARLINK-35988", "group": "last-30-days", "lat": -22.47488274931505, "lon": 83.58522902375752, "alt_km": 334.03358798185855, "timestamp": "2025-12-05T04:52:14.143083+00:00", "meta": {"OBJECT_NAME": "STARLINK-35988", "OBJECT_ID": "2025-270AD", "EPOCH": "2025-12-04T00:37:22.745280", "MEAN_MOTION": 15.77540776, "ECCENTRICITY": 0.0012646, "INCLINATION": 42.9993, "RA_OF_ASC_NODE": 244.4008, "ARG_OF_PERICENTER": 273.4991, "MEAN_ANOMALY": 86.4432, "EPHEMERIS_TYPE": 0, "CLASSIFICATION_TYPE": "U", "NORAD_CAT_ID": 66615, "ELEMENT_SET_NO": 999, "REV_AT_EPOCH": 282, "BSTAR": 0.0020154804, "MEAN_MOTION_DOT": 0.00361862, "MEAN_MOTION_DDOT": 0}, "tle": {"line1": "1 66615U 25270AD  25338.02595770  .00361862  00000+0  20155-2 0  9996", "line2": "2 66615  42.9993 244.4008 0012646 273.4991  86.4432 15.77540776  2826"}}, "geometry": {"type": "Point", "coordinates": [83.58522902375752, -22.47488274931505]}}, {"type": "Feature", "properties": {"norad_id": 66616, "name": "STARLINK-35391", "group": "last-30-days", "lat": -15.504817632652122, "lon": 74.5805972931244, "alt_km": 342.2130556248994, "timestamp": "2025-12-05T04:52:14.143092+00:00", "meta": {"OBJECT_NAME": "STARLINK-35391", "OBJECT_ID": "2025-270AE", "EPOCH": "2025-12-04T15:50:31.921152", "MEAN_MOTION": 15.75307579, "ECCENTRICITY": 0.0002796, "INCLINATION": 42.9976, "RA_OF_ASC_NODE": 240.5563, "ARG_OF_PERICENTER": 246.6155, "MEAN_ANOMALY": 113.4421, "EPHEMERIS_TYPE": 0, "CLASSIFICATION_TYPE": "U", "NORAD_CAT_ID": 66616, "ELEMENT_SET_NO": 999, "REV_AT_EPOCH": 319, "BSTAR": 0.0038519, "MEAN_MOTION_DOT": 0.00646333, "MEAN_MOTION_DDOT": 0}, "tle": {"line1": "1 66616U 25270AE  25338.66009168  .00646333  00000+0  38519-2 0  9990", "line2": "2 66616  42.9976 240.5563 0002796 246.6155 113.4421 15.75307579  3190"}}, "geometry": {"type": "Point", "coordinates": [74.5805972931244, -15.504817632652122]}}, {"type": "Feature", "properties": {"norad_id": 66617, "name": "STARLINK-35940", "group": "last-30-days", "lat": 48.95294755483261, "lon": -76.40971128338195, "alt_km": 321.1885707854808, "timestamp": "2025-12-05T04:52:14.143102+00:00", "meta": {"OBJECT_NAME": "STARLINK-35940", "OBJECT_ID": "2025-271A", "EPOCH": "2025-12-04T07:20:17.054880", "MEAN_MOTION": 15.8184412, "ECCENTRICITY": 6.78e-05, "INCLINATION": 53.1574, "RA_OF_ASC_NODE": 228.6482, "ARG_OF_PERICENTER": 40.0862, "MEAN_ANOMALY": 320.0211, "EPHEMERIS_TYPE": 0, "CLASSIFICATION_TYPE": "U", "NORAD_CAT_ID": 66617, "ELEMENT_SET_NO": 999, "REV_AT_EPOCH": 288, "BSTAR": -0.0029443, "MEAN_MOTION_DOT": -0.00570206, "MEAN_MOTION_DDOT": 0}, "tle": {"line1": "1 66617U 25271A   25338.30575295 -.00570206  00000+0 -29443-2 0  9995", "line2": "2 66617  53.1574 228.6482 0000678  40.0862 320.0211 15.81844120  2887"}}, "geometry": {"type": "Point", "coordinates": [-76.40971128338195, 48.95294755483261]}}, {"type": "Feature", "properties": {"norad_id": 66618, "name": "STARLINK-35970", "group": "last-30-days", "lat": 36.10652121594959, "lon": 10.861129220966475, "alt_km": 334.90242448034496, "timestamp": "2025-12-05T04:52:14.143112+00:00", "meta": {"OBJECT_NAME": "STARLINK-35970", "OBJECT_ID": "2025-271B", "EPOCH": "2025-12-04T16:08:47.378112", "MEAN_MOTION": 15.78027581, "ECCENTRICITY": 2.4e-05, "INCLINATION": 53.1563, "RA_OF_ASC_NODE": 226.6615, "ARG_OF_PERICENTER": 190.966, "MEAN_ANOMALY": 169.1356, "EPHEMERIS_TYPE": 0, "CLASSIFICATION_TYPE": "U", "NORAD_CAT_ID": 66618, "ELEMENT_SET_NO": 999, "REV_AT_EPOCH": 294, "BSTAR": -0.0069931, "MEAN_MOTION_DOT": -0.0108913, "MEAN_MOTION_DDOT": 0}, "tle": {"line1": "1 66618U 25271B   25338.67277058 -.01089130  00000+0 -69931-2 0  9990", "line2": "2 66618  53.1563 226.6615 0000240 190.9660 169.1356 15.78027581  2947"}}, "geometry": {"type": "Point", "coordinates": [10.861129220966475, 36.10652121594959]}}, {"type": "Feature", "properties": {"norad_id": 66619, "name": "STARLINK-35951", "group": "last-30-days", "lat": 51.73677988348724, "lon": -63.93677590482772, "alt_km": 319.1894442528037, "timestamp": "2025-12-05T04:52:14.143121+00:00", "meta": {"OBJECT_NAME": "STARLINK-35951", "OBJECT_ID": "2025-271C", "EPOCH": "2025-12-04T16:24:17.728128", "MEAN_MOTION": 15.81164298, "ECCENTRICITY": 0.0003985, "INCLINATION": 53.1566, "RA_OF_ASC_NODE": 226.7354, "ARG_OF_PERICENTER": 184.8353, "MEAN_ANOMALY": 175.2632, "EPHEMERIS_TYPE": 0, "CLASSIFICATION_TYPE": "U", "NORAD_CAT_ID": 66619, "ELEMENT_SET_NO": 999, "REV_AT_EPOCH": 294, "BSTAR": 0.0031545, "MEAN_MOTION_DOT": 0.00682668, "MEAN_MOTION_DDOT": 0}, "tle": {"line1": "1 66619U 25271C   25338.68353852  .00682668  00000+0  31545-2 0  9991", "line2": "2 66619  53.1566 226.7354 0003985 184.8353 175.2632 15.81164298  2948"}}, "geometry": {"type": "Point", "coordinates": [-63.93677590482772, 51.73677988348724]}}, {"type": "Feature", "properties": {"norad_id": 66620, "name": "STARLINK-35936", "group": "last-30-days", "lat": 49.152362865807426, "lon": -75.71663285225713, "alt_km": 323.0102223004096, "timestamp": "2025-12-05T04:52:14.143131+00:00", "meta": {"OBJECT_NAME": "STARLINK-35936", "OBJECT_ID": "2025-271D", "EPOCH": "2025-12-04T16:25:56.974080", "MEAN_MOTION": 15.80825701, "ECCENTRICITY": 0.0002899, "INCLINATION": 53.157, "RA_OF_ASC_NODE": 226.7449, "ARG_OF_PERICENTER": 194.5504, "MEAN_ANOMALY": 165.5436, "EPHEMERIS_TYPE": 0, "CLASSIFICATION_TYPE": "U", "NORAD_CAT_ID": 66620, "ELEMENT_SET_NO": 999, "REV_AT_EPOCH": 294, "BSTAR": -0.00072034, "MEAN_MOTION_DOT": -0.00140336, "MEAN_MOTION_DDOT": 0}, "tle": {"line1": "1 66620U 25271D   25338.68468720 -.00140336  00000+0 -72034-3 0  9996", "line2": "2 66620  53.1570 226.7449 0002899 194.5504 165.5436 15.80825701  2945"}}, "geometry": {"type": "Point", "coordinates": [-75.71663285225713, 49.152362865807426]}}, {"type": "Feature", "properties": {"norad_id": 66621, "name": "STARLINK-35847", "group": "last-30-days", "lat": 28.76271327448374, "lon": 19.689948739739577, "alt_km": 330.3252589724152, "timestamp": "2025-12-05T04:52:14.143140+00:00", "meta": {"OBJECT_NAME": "STARLINK-35847", "OBJECT_ID": "2025-271E", "EPOCH": "2025-12-04T05:29:14.400096", "MEAN_MOTION": 15.80119551, "ECCENTRICITY": 8.3e-05, "INCLINATION": 53.1563, "RA_OF_ASC_NODE": 228.8686, "ARG_OF_PERICENTER": 162.0892, "MEAN_ANOMALY": 198.016, "EPHEMERIS_TYPE": 0, "CLASSIFICATION_TYPE": "U", "NORAD_CAT_ID": 66621, "ELEMENT_SET_NO": 999, "REV_AT_EPOCH": 287, "BSTAR": -0.0041389, "MEAN_MOTION_DOT": -0.00726477, "MEAN_MOTION_DDOT": 0}, "tle": {"line1": "1 66621U 25271E   25338.22863889 -.00726477  00000+0 -41389-2 0  9996", "line2": "2 66621  53.1563 228.8686 0000830 162.0892 198.0160 15.80119551  2873"}}, "geometry": {"type": "Point", "coordinates": [19.689948739739577, 28.76271327448374]}}, {"type": "Feature", "properties": {"norad_id": 66622, "name": "STARLINK-35950", "group": "last-30-days", "lat": 52.39928062871099, "lon": -59.063810607733686, "alt_km": 321.115414740676, "timestamp": "2025-12-05T04:52:14.143149+00:00", "meta": {"OBJECT_NAME": "STARLINK-35950", "OBJECT_ID": "2025-271F", "EPOCH": "2025-12-04T07:17:24.781920", "MEAN_MOTION": 15.81843167, "ECCENTRICITY": 3.92e-05, "INCLINATION": 53.157, "RA_OF_ASC_NODE": 228.6341, "ARG_OF_PERICENTER": 311.7184, "MEAN_ANOMALY": 48.3805, "EPHEMERIS_TYPE": 0, "CLASSIFICATION_TYPE": "U", "NORAD_CAT_ID": 66622, "ELEMENT_SET_NO": 999, "REV_AT_EPOCH": 288, "BSTAR": -0.0027019, "MEAN_MOTION_DOT": -0.00525909, "MEAN_MOTION_DDOT": 0}, "tle": {"line1": "1 66622U 25271F   25338.30375905 -.00525909  00000+0 -27019-2 0  9994", "line2": "2 66622  53.1570 228.6341 0000392 311.7184  48.3805 15.81843167  2880"}}, "geometry": {"type": "Point", "coordinates": [-59.063810607733686, 52.39928062871099]}}, {"type": "Feature", "properties": {"norad_id": 66623, "name": "STARLINK-35920", "group": "last-30-days", "lat": 52.913590824719726, "lon": -53.166326063788254, "alt_km": 320.3183337155342, "timestamp": "2025-12-05T04:52:14.143158+00:00", "meta": {"OBJECT_NAME": "STARLINK-35920", "OBJECT_ID": "2025-271G", "EPOCH": "2025-12-04T10:18:25.884864", "MEAN_MOTION": 15.81474448, "ECCENTRICITY": 0.000142, "INCLINATION": 53.1567, "RA_OF_ASC_NODE": 227.9949, "ARG_OF_PERICENTER": 2.2541, "MEAN_ANOMALY": 357.8488, "EPHEMERIS_TYPE": 0, "CLASSIFICATION_TYPE": "U", "NORAD_CAT_ID": 66623, "ELEMENT_SET_NO": 999, "REV_AT_EPOCH": 290, "BSTAR": -0.001618, "MEAN_MOTION_DOT": -0.00317341, "MEAN_MOTION_DDOT": 0}, "tle": {"line1": "1 66623U 25271G   25338.42946626 -.00317341  00000+0 -16180-2 0  9998", "line2": "2 66623  53.1567 227.9949 0001420   2.2541 357.8488 15.81474448  2905"}}, "geometry": {"type": "Point", "coordinates": [-53.166326063788254, 52.913590824719726]}}]}